{"type":"FeatureCollection","licence":"Data © OpenStreetMap contributors, ODbL 1.0. http://osm.org/copyright","features":[{"type":"Feature","properties":{"place_id":3646964,"osm_type":"relation","osm_id":1944770,"place_rank":16,"category":"boundary","type":"administrative","importance":0.4920768320516343,"addresstype":"city","name":"Miraflores","display_name":"Miraflores, Lima, Lima Metropolitana, Lima, Perú","address":{"city":"Miraflores","region":"Lima","ISO3166-2-lvl6":"PE-LMA","state_district":"Lima Metropolitana","state":"Lima","ISO3166-2-lvl4":"PE-LIM","country":"Perú","country_code":"pe"}},"bbox":[-77.0560187,-12.1401485,-77.0012861,-12.1028466],"geometry":{"type":"Polygon","coordinates":[[[-77.0560187,-12.1112981],[-77.0556648,-12.1115778],[-77.0551517,-12.1118852],[-77.0549731,-12.1119849],[-77.05448,-12.112312],[-77.0539185,-12.1126424],[-77.0533866,-12.1130198],[-77.053079,-12.1132299],[-77.0527582,-12.11348],[-77.0520912,-12.1140758],[-77.0515054,-12.1146577],[-77.0511281,-12.1151013],[-77.0507515,-12.1156966],[-77.050454,-12.1161203],[-77.0503968,-12.1162864],[-77.0503794,-12.1163742],[-77.0503807,-12.1164398],[-77.0504035,-12.1165054],[-77.05044,-12.1165558],[-77.0512656,-12.1174141],[-77.0511739,-12.1174961],[-77.050338,-12.1166797],[-77.0502695,-12.1166797],[-77.0501445,-12.1167422],[-77.0499882,-12.1168847],[-77.049832,-12.1169981],[-77.0497011,-12.1170976],[-77.0495449,-12.1172129],[-77.0494042,-12.1173476],[-77.0492735,-12.1174629],[-77.0491114,-12.1175781],[-77.0488926,-12.1177031],[-77.0487872,-12.1178065],[-77.0486191,-12.1179316],[-77.0484649,-12.1179844],[-77.0483145,-12.118084],[-77.0480684,-12.1182031],[-77.0478809,-12.1182715],[-77.0477285,-12.1183145],[-77.0476309,-12.1183867],[-77.0475781,-12.1184785],[-77.0474531,-12.1185332],[-77.0473086,-12.1185722],[-77.0471036,-12.1186992],[-77.0470097,-12.118752],[-77.0468476,-12.1188672],[-77.046791,-12.119002],[-77.0467011,-12.1190547],[-77.0466074,-12.1190899],[-77.0464882,-12.1191836],[-77.0464013,-12.1193303],[-77.0463003,-12.1194534],[-77.0462457,-12.1195972],[-77.04621,-12.1197268],[-77.0462261,-12.1198112],[-77.0463771,-12.1198745],[-77.0465495,-12.1199966],[-77.046716,-12.1200708],[-77.0469089,-12.1201697],[-77.0468827,-12.1202401],[-77.0467107,-12.1201739],[-77.0466112,-12.1201949],[-77.0464435,-12.1203392],[-77.0463648,-12.1204271],[-77.046252,-12.1205509],[-77.0461935,-12.1206113],[-77.0461241,-12.1206859],[-77.04605,-12.1207937],[-77.0459768,-12.1209357],[-77.0459336,-12.1210606],[-77.0460077,-12.1211777],[-77.046043,-12.1212656],[-77.0460359,-12.1213648],[-77.0465721,-12.1218743],[-77.0465025,-12.1219443],[-77.0459955,-12.1214625],[-77.0458555,-12.121457],[-77.0457969,-12.121459],[-77.0457305,-12.1214766],[-77.0456641,-12.1214844],[-77.0456094,-12.1215117],[-77.0455117,-12.1215489],[-77.0454355,-12.1215879],[-77.0453516,-12.1216426],[-77.0452989,-12.1216799],[-77.0452324,-12.1217305],[-77.0451601,-12.1217774],[-77.0450664,-12.1218476],[-77.045,-12.1218985],[-77.0448985,-12.1219961],[-77.0448281,-12.122045],[-77.0447636,-12.1220937],[-77.0447011,-12.1221387],[-77.0446347,-12.1221757],[-77.0445781,-12.1222169],[-77.0445371,-12.1222735],[-77.0444766,-12.1223145],[-77.0444199,-12.1223731],[-77.0443555,-12.1224297],[-77.0443047,-12.1224707],[-77.0442305,-12.1225254],[-77.0441562,-12.122586],[-77.0440899,-12.122627],[-77.0440449,-12.1226621],[-77.0439805,-12.122709],[-77.0439101,-12.1227656],[-77.0438417,-12.122795],[-77.0437637,-12.122836],[-77.0436875,-12.1228926],[-77.043625,-12.122918],[-77.0435469,-12.1229472],[-77.0434689,-12.1229882],[-77.0434239,-12.1230195],[-77.0433615,-12.1230742],[-77.043252,-12.123123],[-77.0430136,-12.1231934],[-77.0428457,-12.12325],[-77.0427481,-12.123291],[-77.0426035,-12.1233594],[-77.0425235,-12.1233965],[-77.0424726,-12.1234356],[-77.0423066,-12.1234706],[-77.0421816,-12.1235507],[-77.0420215,-12.1236524],[-77.041791,-12.1238281],[-77.0416485,-12.1239687],[-77.041543,-12.1241485],[-77.0416836,-12.1243281],[-77.0415996,-12.1244101],[-77.041412,-12.1242149],[-77.0413164,-12.1241932],[-77.0412149,-12.1242344],[-77.0411446,-12.1243204],[-77.0410449,-12.1243594],[-77.0408027,-12.1244414],[-77.0405917,-12.1244862],[-77.0404961,-12.1245566],[-77.0403165,-12.1247012],[-77.0400742,-12.1249024],[-77.0398945,-12.1250039],[-77.0397676,-12.1251132],[-77.0396485,-12.1252305],[-77.0395781,-12.125295],[-77.039416,-12.1254551],[-77.0392559,-12.1256329],[-77.0390937,-12.125791],[-77.0389532,-12.1259531],[-77.038752,-12.1261544],[-77.0386114,-12.1263399],[-77.0385117,-12.1265059],[-77.0385117,-12.1266075],[-77.0385469,-12.1266779],[-77.0385879,-12.1267577],[-77.0393476,-12.127543],[-77.0392402,-12.1276485],[-77.0385117,-12.1268926],[-77.0384316,-12.1269434],[-77.0382402,-12.1270742],[-77.0380801,-12.1271895],[-77.0379844,-12.1273106],[-77.0377676,-12.1275254],[-77.0376562,-12.1276367],[-77.0375976,-12.1277734],[-77.0374552,-12.1279434],[-77.037336,-12.1281309],[-77.0371836,-12.128293],[-77.0371035,-12.1284159],[-77.0370899,-12.1285312],[-77.0371836,-12.1286132],[-77.0372656,-12.1286545],[-77.0372656,-12.1287735],[-77.0371092,-12.128791],[-77.0369844,-12.1289551],[-77.0369082,-12.1290742],[-77.0367969,-12.1291954],[-77.0366817,-12.1292754],[-77.0365507,-12.1293575],[-77.0364356,-12.1294571],[-77.0363047,-12.1295976],[-77.0361191,-12.1297481],[-77.0359472,-12.12992],[-77.0357715,-12.1300705],[-77.0356621,-12.1301816],[-77.0355899,-12.1303184],[-77.0355391,-12.1304375],[-77.0356245,-12.1305608],[-77.0360489,-12.1311647],[-77.0362092,-12.1314056],[-77.0365769,-12.1319459],[-77.0371172,-12.1326915],[-77.0370019,-12.1327735],[-77.0356895,-12.1308965],[-77.0355761,-12.1308632],[-77.035453,-12.1308672],[-77.0353437,-12.1309062],[-77.0351972,-12.1309825],[-77.0350312,-12.1310391],[-77.0349219,-12.1311329],[-77.0348164,-12.1312539],[-77.0346797,-12.131418],[-77.0345469,-12.1314884],[-77.0343906,-12.1316075],[-77.0341816,-12.1317169],[-77.033998,-12.1317969],[-77.0338262,-12.1319101],[-77.0336699,-12.1319669],[-77.0335039,-12.132],[-77.0334434,-12.1320625],[-77.0333437,-12.1321582],[-77.0331739,-12.1322695],[-77.0328417,-12.1325059],[-77.0326855,-12.1326582],[-77.032543,-12.1328047],[-77.0323943,-12.1329585],[-77.0323711,-12.1329825],[-77.0321309,-12.133086],[-77.031916,-12.1331972],[-77.0317636,-12.1332989],[-77.0316542,-12.1334375],[-77.0314707,-12.133586],[-77.0313281,-12.1337129],[-77.031248,-12.1338496],[-77.0311406,-12.1339492],[-77.0310274,-12.1340272],[-77.0309336,-12.1341641],[-77.0308399,-12.1342871],[-77.0306934,-12.1344687],[-77.0305371,-12.1347187],[-77.0303847,-12.13491],[-77.0302422,-12.1351601],[-77.0301542,-12.1353281],[-77.030041,-12.1355],[-77.0299277,-12.1356621],[-77.0298379,-12.1358457],[-77.029793,-12.1359121],[-77.0297599,-12.1359746],[-77.0297422,-12.1360294],[-77.0296992,-12.1361231],[-77.0296525,-12.1362461],[-77.0295899,-12.136334],[-77.0295332,-12.1364395],[-77.0294902,-12.1365097],[-77.0294531,-12.1365917],[-77.0294101,-12.1367207],[-77.0293614,-12.136834],[-77.0293399,-12.1369101],[-77.029293,-12.136994],[-77.0292637,-12.1370527],[-77.0292402,-12.1371309],[-77.0291972,-12.1372129],[-77.0291524,-12.1373047],[-77.0291132,-12.1373926],[-77.0290996,-12.137461],[-77.0291152,-12.137545],[-77.0293985,-12.1376739],[-77.029375,-12.1377402],[-77.0291309,-12.1376601],[-77.029082,-12.1377579],[-77.0290527,-12.1378184],[-77.0290254,-12.1379062],[-77.029,-12.1380156],[-77.0289629,-12.1381035],[-77.0289257,-12.1381524],[-77.0288691,-12.1382246],[-77.0287969,-12.1383066],[-77.0287422,-12.1383985],[-77.028709,-12.1384785],[-77.0286934,-12.1385489],[-77.02867,-12.1386426],[-77.0286562,-12.1387207],[-77.0286172,-12.1387989],[-77.0285841,-12.1388711],[-77.0285625,-12.1389277],[-77.0284864,-12.1390252],[-77.0284492,-12.1390976],[-77.0284355,-12.1391641],[-77.0284277,-12.1392481],[-77.0284082,-12.139334],[-77.02842,-12.1394375],[-77.028457,-12.1395312],[-77.0285195,-12.1396035],[-77.0285664,-12.1396895],[-77.029541,-12.1401485],[-77.0294375,-12.1401406],[-77.0284531,-12.139707],[-77.0283027,-12.139627],[-77.0281895,-12.1395489],[-77.0279395,-12.139416],[-77.0278886,-12.1393164],[-77.0277617,-12.1391347],[-77.0276913,-12.1390472],[-77.027625,-12.1389649],[-77.0274746,-12.1388066],[-77.0270996,-12.1384669],[-77.0268105,-12.1381406],[-77.0266797,-12.1379629],[-77.0265605,-12.1377832],[-77.0259844,-12.1367735],[-77.0259199,-12.1366504],[-77.0258145,-12.1365039],[-77.0256836,-12.136375],[-77.0255117,-12.1362402],[-77.0254504,-12.1361906],[-77.0253558,-12.1361336],[-77.0252812,-12.1360963],[-77.0252066,-12.1360572],[-77.0251229,-12.1360198],[-77.0249628,-12.1359753],[-77.0248082,-12.135954],[-77.0246117,-12.1359166],[-77.0242915,-12.1358419],[-77.0240859,-12.1357761],[-77.0229961,-12.1352676],[-77.0231152,-12.1349336],[-77.0225059,-12.1347149],[-77.0221035,-12.134461],[-77.0216992,-12.1340704],[-77.0212715,-12.1334454],[-77.0211562,-12.1332519],[-77.0196121,-12.1306691],[-77.019484,-12.1306122],[-77.0191485,-12.1312695],[-77.0179808,-12.1312664],[-77.0179996,-12.1303877],[-77.0175382,-12.1303812],[-77.0173195,-12.1303781],[-77.0173164,-12.1301114],[-77.017241,-12.1299901],[-77.0171211,-12.1299375],[-77.0164484,-12.1305299],[-77.0163223,-12.1302019],[-77.0161601,-12.1299434],[-77.015877,-12.1301992],[-77.0156886,-12.1299405],[-77.0155266,-12.1301538],[-77.0153675,-12.1301112],[-77.0149781,-12.1302142],[-77.0142743,-12.1301575],[-77.0142054,-12.1301754],[-77.0140598,-12.1302506],[-77.0138768,-12.1303991],[-77.0134803,-12.1299343],[-77.0131595,-12.1298362],[-77.0130434,-12.1301344],[-77.0130646,-12.1303205],[-77.0126517,-12.1304016],[-77.0124911,-12.1304539],[-77.0124805,-12.1303933],[-77.0118966,-12.1305063],[-77.0117715,-12.1300039],[-77.0113086,-12.130082],[-77.0106971,-12.1300261],[-77.0093767,-12.1299077],[-77.0093863,-12.1298091],[-77.0087969,-12.1297891],[-77.0087729,-12.1300574],[-77.0079166,-12.1300221],[-77.0073493,-12.1301875],[-77.0073122,-12.1300923],[-77.0067196,-12.1302493],[-77.006134,-12.1303847],[-77.0055849,-12.1305817],[-77.0054363,-12.1300993],[-77.0049147,-12.1302358],[-77.004766,-12.1303307],[-77.0046452,-12.1303633],[-77.0044948,-12.1303341],[-77.0043355,-12.1302749],[-77.0038228,-12.1300658],[-77.0040532,-12.1295131],[-77.0040777,-12.1293893],[-77.0040767,-12.1291231],[-77.0039861,-12.1285523],[-77.0037725,-12.1285878],[-77.0038143,-12.1290346],[-77.0037849,-12.1293253],[-77.0035102,-12.1300385],[-77.0032449,-12.1299215],[-77.0034564,-12.1294059],[-77.0033618,-12.1293166],[-77.0032979,-12.1293117],[-77.0025419,-12.1294238],[-77.0022717,-12.1294964],[-77.0023944,-12.1297634],[-77.0017882,-12.1300435],[-77.0016393,-12.129752],[-77.0014535,-12.1293725],[-77.0014082,-12.1292208],[-77.0016309,-12.1288614],[-77.001498,-12.128562],[-77.0012861,-12.1284408],[-77.0026989,-12.126386],[-77.0046752,-12.1236802],[-77.0101699,-12.1156914],[-77.0130303,-12.1175284],[-77.0131954,-12.1176856],[-77.0132539,-12.1178672],[-77.0132461,-12.118793],[-77.0138027,-12.1188221],[-77.0138027,-12.1193789],[-77.0172949,-12.1194355],[-77.0172792,-12.1205489],[-77.0182129,-12.1205601],[-77.0182424,-12.1205605],[-77.0182217,-12.1200916],[-77.0182051,-12.1197149],[-77.0182081,-12.1194145],[-77.0182344,-12.1194141],[-77.0240957,-12.1198417],[-77.0249199,-12.1192695],[-77.0251875,-12.1191757],[-77.0258204,-12.1191582],[-77.0258274,-12.1191212],[-77.0261406,-12.1174629],[-77.0261757,-12.1171972],[-77.0261517,-12.1168924],[-77.0259492,-12.1143262],[-77.0259635,-12.1141055],[-77.0260039,-12.1134825],[-77.0261419,-12.1119759],[-77.0262662,-12.110457],[-77.0265586,-12.1081992],[-77.0272291,-12.1065162],[-77.0273125,-12.1063204],[-77.0274199,-12.1059669],[-77.0274649,-12.1053024],[-77.0274667,-12.1035957],[-77.0272786,-12.1028466],[-77.0273751,-12.1028597],[-77.0279749,-12.1029464],[-77.0315099,-12.1035098],[-77.0315531,-12.1035829],[-77.0366114,-12.1100254],[-77.0371582,-12.1100645],[-77.03825,-12.1089746],[-77.039041,-12.1097539],[-77.0391198,-12.1096768],[-77.0392196,-12.1095769],[-77.0399454,-12.1088575],[-77.0404629,-12.1083457],[-77.0431132,-12.1108457],[-77.0436255,-12.1105901],[-77.0439044,-12.1104892],[-77.044192,-12.1104373],[-77.0449981,-12.1104492],[-77.0462451,-12.1104925],[-77.0466914,-12.1109414],[-77.0481339,-12.1094961],[-77.0482832,-12.109344],[-77.0492694,-12.1083691],[-77.0513743,-12.1102619],[-77.051572,-12.110102],[-77.0516107,-12.1100813],[-77.0516972,-12.1100351],[-77.0517735,-12.1099531],[-77.0518632,-12.1098594],[-77.0519044,-12.1098162],[-77.0519667,-12.10975],[-77.0520117,-12.1096972],[-77.0520801,-12.1096309],[-77.0522051,-12.109502],[-77.0523614,-12.1093301],[-77.0524844,-12.1091875],[-77.052582,-12.1090781],[-77.0527579,-12.1088829],[-77.0528887,-12.1087382],[-77.0530645,-12.108543],[-77.0531544,-12.1084492],[-77.0531992,-12.1089591],[-77.0532936,-12.1092707],[-77.0533333,-12.1093723],[-77.0533652,-12.1094374],[-77.0534364,-12.1095305],[-77.0535133,-12.1095976],[-77.0535754,-12.1096367],[-77.0537402,-12.1096934],[-77.0542929,-12.1096992],[-77.054418,-12.1097364],[-77.0544746,-12.1097656],[-77.0545415,-12.1098277],[-77.0545547,-12.1098399],[-77.054625,-12.1099044],[-77.0546914,-12.1099531],[-77.0547402,-12.1099785],[-77.0547871,-12.1100059],[-77.0548574,-12.1100391],[-77.0549297,-12.1101016],[-77.0549649,-12.1101544],[-77.0549785,-12.1102246],[-77.0549726,-12.1102891],[-77.0549551,-12.1103575],[-77.0549395,-12.1104454],[-77.0549766,-12.1105176],[-77.0550079,-12.1105664],[-77.0550704,-12.1106211],[-77.0551601,-12.1106934],[-77.0553496,-12.1107812],[-77.0554159,-12.1108125],[-77.0555899,-12.1108887],[-77.0556934,-12.1109414],[-77.05575,-12.1109667],[-77.0560187,-12.1112981]]]}},{"type":"Feature","properties":{"place_id":3595958,"osm_type":"relation","osm_id":1944844,"place_rank":16,"category":"boundary","type":"administrative","importance":0.43923599686144116,"addresstype":"city","name":"Santiago de Surco","display_name":"Santiago de Surco, Lima, Lima Metropolitana, Lima, Perú","address":{"city":"Santiago de Surco","region":"Lima","ISO3166-2-lvl6":"PE-LMA","state_district":"Lima Metropolitana","state":"Lima","ISO3166-2-lvl4":"PE-LIM","country":"Perú","country_code":"pe"}},"bbox":[-77.0183516,-12.1742843,-76.9477461,-12.0757255],"geometry":{"type":"Polygon","coordinates":[[[-77.0183516,-12.1526289],[-77.0171504,-12.1534492],[-77.0168281,-12.1536856],[-77.0163516,-12.1540702],[-77.015584,-12.1547344],[-77.0158476,-12.1551094],[-77.0160351,-12.1556289],[-77.0100001,-12.1589377],[-77.0097311,-12.1590851],[-77.0074531,-12.160334],[-77.0078066,-12.161457],[-77.0096972,-12.1612596],[-77.0108711,-12.1629161],[-77.0119239,-12.1643379],[-77.0121739,-12.1645762],[-77.012961,-12.165084],[-77.012998,-12.1651954],[-77.0120254,-12.166086],[-77.0114804,-12.1665957],[-77.0096601,-12.1677735],[-77.0096309,-12.168047],[-77.0083123,-12.1687256],[-77.0079616,-12.1689505],[-77.0077771,-12.1690492],[-77.0074727,-12.1692461],[-77.0074961,-12.1695566],[-77.0074961,-12.1696757],[-77.006883,-12.1703222],[-77.006168,-12.1710976],[-77.0056817,-12.1717226],[-77.0052324,-12.172416],[-77.0045663,-12.1734059],[-77.0037072,-12.1738711],[-77.0023376,-12.1742843],[-77.0017715,-12.1729004],[-77.0020292,-12.1727344],[-77.0016172,-12.1715606],[-77.0009551,-12.1696524],[-77.000334,-12.1678672],[-76.9999357,-12.16772],[-76.9997579,-12.1673496],[-76.9995066,-12.1668464],[-76.9994459,-12.1666158],[-76.9992201,-12.1661923],[-76.9985223,-12.1666932],[-76.9981531,-12.1670054],[-76.9977977,-12.1673266],[-76.9971094,-12.1677989],[-76.9967985,-12.1680501],[-76.9960039,-12.1686349],[-76.9958408,-12.1687784],[-76.9955156,-12.1690645],[-76.9947422,-12.1696524],[-76.9940687,-12.1700329],[-76.9937226,-12.1702832],[-76.992461,-12.1712735],[-76.9916309,-12.172041],[-76.9913007,-12.172586],[-76.9905664,-12.1731172],[-76.989832,-12.1730977],[-76.9893417,-12.1730156],[-76.9886007,-12.1729051],[-76.988032,-12.1725419],[-76.9871004,-12.1711994],[-76.9866477,-12.1698351],[-76.9865317,-12.168862],[-76.9864967,-12.1682331],[-76.9864902,-12.1681165],[-76.9864442,-12.1678866],[-76.9862374,-12.1676659],[-76.9858007,-12.1676567],[-76.9853132,-12.1676842],[-76.9848076,-12.1676475],[-76.9844765,-12.1674636],[-76.9843294,-12.1672521],[-76.9842891,-12.1669667],[-76.9842424,-12.1660949],[-76.9842386,-12.1659941],[-76.9842277,-12.1656985],[-76.9840606,-12.1651228],[-76.9840344,-12.1650002],[-76.9838269,-12.1642293],[-76.9838108,-12.1640032],[-76.9838109,-12.1637494],[-76.9838053,-12.1630369],[-76.9838064,-12.1628431],[-76.9840125,-12.1626669],[-76.9840816,-12.1625938],[-76.9841491,-12.1624882],[-76.9843093,-12.1621458],[-76.9843423,-12.1620566],[-76.9843492,-12.1619071],[-76.9843224,-12.1613471],[-76.9844349,-12.1612096],[-76.9846212,-12.1610425],[-76.9849308,-12.1609069],[-76.98487,-12.1598589],[-76.9848308,-12.158539],[-76.9848094,-12.1578324],[-76.9847733,-12.1571218],[-76.9847396,-12.1560435],[-76.9842363,-12.1558833],[-76.9835891,-12.15563],[-76.9837365,-12.1548256],[-76.983823,-12.1536058],[-76.9838222,-12.153209],[-76.9838097,-12.1530222],[-76.9836608,-12.1516017],[-76.9834434,-12.1505979],[-76.9830719,-12.149643],[-76.9826621,-12.1483586],[-76.9820427,-12.1464094],[-76.9816414,-12.1448871],[-76.9815274,-12.1443555],[-76.9814414,-12.143877],[-76.9814076,-12.1436606],[-76.9813569,-12.1433356],[-76.9812364,-12.1418809],[-76.9806394,-12.1383969],[-76.9793465,-12.1385779],[-76.979256,-12.1386296],[-76.9792366,-12.13883],[-76.9791267,-12.1390175],[-76.978797,-12.1391664],[-76.9778555,-12.1391172],[-76.9766072,-12.1386562],[-76.9750079,-12.1380684],[-76.9754492,-12.137166],[-76.9750428,-12.136986],[-76.97475,-12.1367832],[-76.974457,-12.1357365],[-76.9744746,-12.1352207],[-76.9740581,-12.1351661],[-76.9734707,-12.1351492],[-76.9721786,-12.1349982],[-76.9720611,-12.1343941],[-76.9719035,-12.1339685],[-76.9718934,-12.1339411],[-76.9709375,-12.1335451],[-76.970786,-12.1322447],[-76.9698698,-12.1318827],[-76.969252,-12.1315542],[-76.9685711,-12.1310911],[-76.9679149,-12.1306605],[-76.966459,-12.1297237],[-76.9654138,-12.1291043],[-76.9624921,-12.1273219],[-76.9622594,-12.1270826],[-76.9621987,-12.1267637],[-76.9625227,-12.1253461],[-76.962435,-12.1248637],[-76.9619498,-12.1240154],[-76.9616368,-12.1227536],[-76.961276,-12.121996],[-76.9609119,-12.1212284],[-76.9605922,-12.1205541],[-76.9605539,-12.1205246],[-76.9603274,-12.1203498],[-76.9598739,-12.1199906],[-76.9586715,-12.1189524],[-76.9575236,-12.1172921],[-76.9572672,-12.1170861],[-76.9567622,-12.1166802],[-76.9563759,-12.1163697],[-76.9553272,-12.1161355],[-76.954904,-12.116041],[-76.9544492,-12.1159394],[-76.9531375,-12.1158984],[-76.952583,-12.1159686],[-76.9516822,-12.1160829],[-76.950309,-12.1163902],[-76.948875,-12.1170937],[-76.9477461,-12.1175351],[-76.9480865,-12.1150124],[-76.948393,-12.1135256],[-76.9485769,-12.1121464],[-76.9487607,-12.1109356],[-76.9490826,-12.1099087],[-76.949849,-12.1087592],[-76.9503854,-12.1075484],[-76.9505846,-12.1065369],[-76.9507686,-12.1050042],[-76.9511517,-12.1043912],[-76.9520406,-12.1035176],[-76.9531135,-12.1021229],[-76.9540484,-12.1009887],[-76.9545082,-12.1003604],[-76.9555504,-12.0992875],[-76.9562861,-12.0987204],[-76.957267,-12.0981226],[-76.9579687,-12.0973242],[-76.958248,-12.0956397],[-76.9587536,-12.0942451],[-76.959091,-12.0937631],[-76.9598265,-12.0927125],[-76.9603016,-12.0909039],[-76.9608687,-12.0864746],[-76.960884,-12.0851565],[-76.9606035,-12.0842461],[-76.9600717,-12.0828575],[-76.9592287,-12.0816621],[-76.9573282,-12.0795624],[-76.9566195,-12.079105],[-76.9560214,-12.078715],[-76.9556815,-12.0784395],[-76.9555117,-12.078375],[-76.9555704,-12.0780039],[-76.9557597,-12.0776972],[-76.9560917,-12.0772871],[-76.9563886,-12.0769219],[-76.9567167,-12.0765625],[-76.9570566,-12.0762441],[-76.9573886,-12.076043],[-76.9579492,-12.0758205],[-76.9583125,-12.0759454],[-76.9587541,-12.0758475],[-76.9592325,-12.0757559],[-76.9595829,-12.0757374],[-76.9598672,-12.0757255],[-76.9604023,-12.075757],[-76.9610273,-12.075848],[-76.9615958,-12.0759705],[-76.9619043,-12.0760558],[-76.9622316,-12.076185],[-76.9626528,-12.0763804],[-76.9630618,-12.076602],[-76.9635701,-12.0769365],[-76.9643037,-12.0775418],[-76.9647566,-12.0779544],[-76.965375,-12.0786524],[-76.9659808,-12.0795612],[-76.9662696,-12.0800272],[-76.9668468,-12.0809165],[-76.966989,-12.0811032],[-76.9671321,-12.0812772],[-76.9673678,-12.081502],[-76.9676004,-12.081697],[-76.9695517,-12.0829843],[-76.9700641,-12.0831656],[-76.9707454,-12.0834944],[-76.9713119,-12.0836044],[-76.9729336,-12.0838204],[-76.9730097,-12.083502],[-76.973336,-12.0829785],[-76.9738331,-12.0819549],[-76.9738809,-12.081582],[-76.9738036,-12.0801687],[-76.973793,-12.0793262],[-76.9739673,-12.0786055],[-76.9743615,-12.0773859],[-76.9746211,-12.0776504],[-76.9747597,-12.0778281],[-76.9748437,-12.078045],[-76.9748555,-12.0781841],[-76.974873,-12.0783906],[-76.9748667,-12.0786017],[-76.974908,-12.0786838],[-76.9750387,-12.0787062],[-76.9760741,-12.078256],[-76.9762847,-12.0786672],[-76.9765301,-12.0790973],[-76.9768064,-12.0795209],[-76.9770317,-12.0798356],[-76.9773428,-12.0802173],[-76.9776177,-12.0805359],[-76.978,-12.0809346],[-76.9783098,-12.0812323],[-76.9789213,-12.0818041],[-76.9794685,-12.0823142],[-76.9798923,-12.0827194],[-76.9802624,-12.0830499],[-76.9813711,-12.0840899],[-76.9818914,-12.0846594],[-76.9820495,-12.0848653],[-76.9822195,-12.08531],[-76.9816934,-12.0866836],[-76.9816055,-12.0871184],[-76.9812597,-12.0888301],[-76.9810745,-12.0901415],[-76.9806171,-12.0933792],[-76.9801162,-12.0969246],[-76.9798225,-12.0988191],[-76.9793199,-12.1020614],[-76.9790336,-12.1042584],[-76.978166,-12.1102559],[-76.978285,-12.1102642],[-76.9828009,-12.1105831],[-76.9927477,-12.1112866],[-76.9938494,-12.1113732],[-76.9939123,-12.1116277],[-76.9940322,-12.1118631],[-76.994248,-12.1126396],[-76.9943779,-12.1128293],[-76.9949554,-12.1139374],[-76.995084,-12.1142848],[-76.9952296,-12.1146121],[-76.9955743,-12.115298],[-76.995533,-12.1153337],[-76.9955235,-12.1154743],[-76.9957731,-12.1159663],[-76.9959119,-12.1161188],[-76.9962159,-12.1166175],[-76.9965743,-12.1173315],[-76.9967633,-12.1177051],[-76.9970281,-12.1186725],[-76.99732,-12.11939],[-76.9975185,-12.1198962],[-76.9977116,-12.1201716],[-76.9978875,-12.1203821],[-76.9980946,-12.1206149],[-76.9985637,-12.1208275],[-76.998782,-12.1208506],[-76.9987473,-12.1210919],[-76.9988112,-12.1213883],[-76.9988803,-12.1214915],[-76.99906,-12.12176],[-76.9991311,-12.1217624],[-76.9994171,-12.1221531],[-76.9995645,-12.1223619],[-76.9997691,-12.1226478],[-76.9999596,-12.122919],[-77.0000255,-12.1230085],[-77.0009515,-12.1243606],[-77.0012568,-12.1245796],[-77.002263,-12.1254826],[-77.0023348,-12.125671],[-77.0024466,-12.1259587],[-77.0025014,-12.1260967],[-77.0026989,-12.126386],[-77.0012861,-12.1284408],[-77.001498,-12.128562],[-77.0016309,-12.1288614],[-77.0014082,-12.1292208],[-77.0014535,-12.1293725],[-77.0016393,-12.129752],[-77.0017882,-12.1300435],[-77.0023944,-12.1297634],[-77.0022717,-12.1294964],[-77.0025419,-12.1294238],[-77.0032979,-12.1293117],[-77.0033618,-12.1293166],[-77.0034564,-12.1294059],[-77.0032449,-12.1299215],[-77.0035102,-12.1300385],[-77.0037849,-12.1293253],[-77.0038143,-12.1290346],[-77.0037725,-12.1285878],[-77.0039861,-12.1285523],[-77.0040767,-12.1291231],[-77.0040777,-12.1293893],[-77.0040532,-12.1295131],[-77.0038228,-12.1300658],[-77.0043355,-12.1302749],[-77.0044948,-12.1303341],[-77.0046452,-12.1303633],[-77.004766,-12.1303307],[-77.0049147,-12.1302358],[-77.0054363,-12.1300993],[-77.0055849,-12.1305817],[-77.006134,-12.1303847],[-77.0067196,-12.1302493],[-77.0073122,-12.1300923],[-77.0073493,-12.1301875],[-77.0079166,-12.1300221],[-77.0087729,-12.1300574],[-77.0087969,-12.1297891],[-77.0093863,-12.1298091],[-77.0093767,-12.1299077],[-77.0106971,-12.1300261],[-77.0113086,-12.130082],[-77.0117715,-12.1300039],[-77.0118966,-12.1305063],[-77.0124805,-12.1303933],[-77.0124911,-12.1304539],[-77.0126517,-12.1304016],[-77.0130646,-12.1303205],[-77.0130434,-12.1301344],[-77.0131595,-12.1298362],[-77.0134803,-12.1299343],[-77.0138768,-12.1303991],[-77.0140598,-12.1302506],[-77.0142054,-12.1301754],[-77.0142743,-12.1301575],[-77.0149781,-12.1302142],[-77.0153675,-12.1301112],[-77.0155266,-12.1301538],[-77.0156886,-12.1299405],[-77.015877,-12.1301992],[-77.0161601,-12.1299434],[-77.0163223,-12.1302019],[-77.0164484,-12.1305299],[-77.0171211,-12.1299375],[-77.017241,-12.1299901],[-77.0173164,-12.1301114],[-77.0173195,-12.1303781],[-77.0175382,-12.1303812],[-77.0179996,-12.1303877],[-77.0179808,-12.1312664],[-77.017873,-12.1357636],[-77.0178172,-12.1358234],[-77.0177512,-12.1358689],[-77.0138457,-12.1392461],[-77.0124864,-12.1404316],[-77.0126034,-12.1406035],[-77.0134239,-12.1422774],[-77.0138242,-12.1430879],[-77.01392,-12.1432597],[-77.0140957,-12.1436972],[-77.0141796,-12.1438632],[-77.0138867,-12.1441132],[-77.0156895,-12.1465059],[-77.0151992,-12.1470976],[-77.015752,-12.1470899],[-77.0157617,-12.1471914],[-77.0158301,-12.1472871],[-77.015959,-12.1473575],[-77.0162896,-12.1480862],[-77.0170254,-12.1497187],[-77.017174,-12.1500775],[-77.0173555,-12.1505157],[-77.0183516,-12.1526289]]]}},{"type":"Feature","properties":{"place_id":3644271,"osm_type":"relation","osm_id":1944744,"place_rank":16,"category":"boundary","type":"administrative","importance":0.44018975936105537,"addresstype":"city","name":"Jesús María","display_name":"Jesús María, Lima, Lima Metropolitana, Lima, Perú","address":{"city":"Jesús María","region":"Lima","ISO3166-2-lvl6":"PE-LMA","state_district":"Lima Metropolitana","state":"Lima","ISO3166-2-lvl4":"PE-LIM","country":"Perú","country_code":"pe"}},"bbox":[-77.0631426,-12.0930704,-77.0362850,-12.0643722],"geometry":{"type":"Polygon","coordinates":[[[-77.0631426,-12.086543],[-77.062416,-12.087043],[-77.0549844,-12.0918867],[-77.0532169,-12.0930704],[-77.0499004,-12.0867031],[-77.0496231,-12.0862461],[-77.049084,-12.0855547],[-77.048586,-12.085041],[-77.0462871,-12.0830469],[-77.0436426,-12.0831856],[-77.0418903,-12.0829345],[-77.0418458,-12.0817353],[-77.0417187,-12.0806524],[-77.0385235,-12.0802246],[-77.036285,-12.0797663],[-77.0381246,-12.0675584],[-77.0375498,-12.0643722],[-77.0392025,-12.0645905],[-77.0396058,-12.0644305],[-77.0398082,-12.064435],[-77.0456639,-12.0651687],[-77.0467354,-12.0666682],[-77.0483006,-12.0685767],[-77.0496587,-12.0703017],[-77.0509734,-12.0718412],[-77.0509824,-12.0718384],[-77.0517969,-12.0727725],[-77.0529329,-12.0741252],[-77.0556232,-12.0773761],[-77.0569434,-12.0789961],[-77.0572659,-12.0794432],[-77.0581095,-12.0805203],[-77.0584815,-12.0809502],[-77.0592106,-12.0817926],[-77.0599077,-12.0826606],[-77.0614109,-12.0844791],[-77.0631426,-12.086543]]]}},{"type":"Feature","properties":{"place_id":3666811,"osm_type":"relation","osm_id":1944825,"place_rank":16,"category":"boundary","type":"administrative","importance":0.41006843495098233,"addresstype":"city","name":"San Miguel","display_name":"San Miguel, Lima, Lima Metropolitana, Lima, Perú","address":{"city":"San Miguel","region":"Lima","ISO3166-2-lvl6":"PE-LMA","state_district":"Lima Metropolitana","state":"Lima","ISO3166-2-lvl4":"PE-LIM","country":"Perú","country_code":"pe"}},"bbox":[-77.1120025,-12.0978760,-77.0714219,-12.0602235],"geometry":{"type":"Polygon","coordinates":[[[-77.1120025,-12.0799989],[-77.1114607,-12.0802792],[-77.1105395,-12.0808146],[-77.1098104,-12.0812637],[-77.1090037,-12.0818106],[-77.1083212,-12.0822095],[-77.1074531,-12.0827035],[-77.1064855,-12.0832286],[-77.1057891,-12.0836599],[-77.1050895,-12.0841577],[-77.1045491,-12.0845207],[-77.1039233,-12.0848608],[-77.1033671,-12.0851393],[-77.102754,-12.0853766],[-77.1023171,-12.0855222],[-77.1016821,-12.0857669],[-77.1011657,-12.0860024],[-77.1007033,-12.0862348],[-77.1002979,-12.0864381],[-77.0999018,-12.0866682],[-77.0993072,-12.0869982],[-77.0987655,-12.0872976],[-77.0979344,-12.0877682],[-77.0971599,-12.0882347],[-77.096084,-12.0888794],[-77.09493,-12.0895928],[-77.0936998,-12.0903883],[-77.0927281,-12.0910105],[-77.0914475,-12.0919676],[-77.0906312,-12.0924822],[-77.089638,-12.0931204],[-77.0888674,-12.0935611],[-77.0878443,-12.094106],[-77.0868975,-12.0946234],[-77.0865869,-12.0948141],[-77.0861131,-12.095058],[-77.0855921,-12.0952566],[-77.0849504,-12.0955344],[-77.084002,-12.0958896],[-77.0833536,-12.0960919],[-77.0826839,-12.0963737],[-77.0819007,-12.096662],[-77.0813996,-12.0968835],[-77.0807168,-12.0971513],[-77.0801146,-12.0973989],[-77.0796444,-12.0975813],[-77.0790081,-12.097876],[-77.0774726,-12.0950254],[-77.0763264,-12.0915739],[-77.076156,-12.0914781],[-77.0751152,-12.0885956],[-77.07416,-12.088919],[-77.0740937,-12.0889414],[-77.07375,-12.087961],[-77.0738125,-12.0879669],[-77.0749141,-12.087502],[-77.074467,-12.0866808],[-77.0739219,-12.0856797],[-77.0735391,-12.0858145],[-77.0722851,-12.0837559],[-77.0722187,-12.0837715],[-77.0721035,-12.083584],[-77.0714219,-12.0815919],[-77.075604,-12.0800717],[-77.0756142,-12.0800814],[-77.0799745,-12.0784902],[-77.0806566,-12.0783646],[-77.0810324,-12.0782954],[-77.080964,-12.0775067],[-77.0808827,-12.0770919],[-77.0808184,-12.0769044],[-77.0805879,-12.0763731],[-77.080211,-12.0755821],[-77.0798476,-12.0750235],[-77.079582,-12.0748204],[-77.0790507,-12.0742559],[-77.0786954,-12.0737735],[-77.0785664,-12.0735195],[-77.0784082,-12.0731016],[-77.0783672,-12.0728575],[-77.0783047,-12.0719922],[-77.0782695,-12.0717266],[-77.0779199,-12.0702579],[-77.0778132,-12.0685052],[-77.0778322,-12.0679616],[-77.0778602,-12.0669112],[-77.0779069,-12.0662353],[-77.0782105,-12.064404],[-77.078542,-12.0628878],[-77.0787258,-12.0621239],[-77.0789394,-12.0613623],[-77.0791435,-12.0602235],[-77.0817949,-12.0607891],[-77.0826656,-12.0609352],[-77.0830062,-12.0609777],[-77.0857016,-12.061319],[-77.0858555,-12.0613366],[-77.0864954,-12.0614099],[-77.0868017,-12.0614408],[-77.0870732,-12.0614623],[-77.0871397,-12.0614273],[-77.0881719,-12.0616739],[-77.0970613,-12.0625006],[-77.0979228,-12.0626228],[-77.1008605,-12.0630725],[-77.1031662,-12.0633092],[-77.1041191,-12.063377],[-77.1043652,-12.063375],[-77.1045711,-12.0633506],[-77.1043086,-12.0646797],[-77.1041094,-12.0657989],[-77.1039551,-12.0668204],[-77.103959,-12.0675684],[-77.1041386,-12.0687851],[-77.1044395,-12.0701954],[-77.1048574,-12.0719902],[-77.1050449,-12.0719101],[-77.1052427,-12.0723401],[-77.1052884,-12.0724726],[-77.1059882,-12.07425],[-77.1075645,-12.0736191],[-77.1091757,-12.076377],[-77.1093439,-12.0763242],[-77.1099766,-12.0774551],[-77.110028,-12.077447],[-77.1104669,-12.0772441],[-77.1109024,-12.0784062],[-77.1111398,-12.0788211],[-77.1114746,-12.0794062],[-77.1120025,-12.0799989]]]}},{"type":"Feature","properties":{"place_id":3680423,"osm_type":"relation","osm_id":1944756,"place_rank":16,"category":"boundary","type":"administrative","importance":0.4645508578551237,"addresstype":"city","name":"Lima","display_name":"Lima, Lima Metropolitana, Lima, Perú","address":{"city":"Lima","region":"Lima","ISO3166-2-lvl6":"PE-LMA","state_district":"Lima Metropolitana","state":"Lima","ISO3166-2-lvl4":"PE-LIM","country":"Perú","country_code":"pe"}},"bbox":[-77.0884555,-12.0797663,-77.0017774,-12.0306376],"geometry":{"type":"Polygon","coordinates":[[[-77.0884555,-12.0588313],[-77.0879297,-12.0594836],[-77.08812,-12.059779],[-77.0882588,-12.0600937],[-77.0882044,-12.060505],[-77.0881708,-12.0608121],[-77.087891,-12.0610429],[-77.0877362,-12.0611515],[-77.0874811,-12.0613515],[-77.0873055,-12.0613925],[-77.0871397,-12.0614273],[-77.0870732,-12.0614623],[-77.0868017,-12.0614408],[-77.0864954,-12.0614099],[-77.0858555,-12.0613366],[-77.0857016,-12.061319],[-77.0830062,-12.0609777],[-77.0826656,-12.0609352],[-77.0817949,-12.0607891],[-77.0791435,-12.0602235],[-77.0789394,-12.0613623],[-77.0787258,-12.0621239],[-77.078542,-12.0628878],[-77.0782105,-12.064404],[-77.0779069,-12.0662353],[-77.0778602,-12.0669112],[-77.0778322,-12.0679616],[-77.0778132,-12.0685052],[-77.0749551,-12.0679219],[-77.0737552,-12.0678929],[-77.0722892,-12.0678903],[-77.071665,-12.0678751],[-77.0656582,-12.0676152],[-77.0651485,-12.0676075],[-77.0636907,-12.067572],[-77.0612154,-12.0675087],[-77.0596371,-12.0630122],[-77.0593174,-12.0620687],[-77.0592074,-12.06176],[-77.0590423,-12.0612122],[-77.0589031,-12.0607362],[-77.0588021,-12.0603715],[-77.0586352,-12.0597444],[-77.0584907,-12.0589716],[-77.0584726,-12.058836],[-77.0584469,-12.058755],[-77.0581561,-12.0578377],[-77.0579042,-12.0570547],[-77.0575976,-12.0558065],[-77.0574903,-12.0556419],[-77.0567424,-12.0544954],[-77.0557572,-12.0531009],[-77.0555566,-12.0528146],[-77.0553696,-12.0525477],[-77.0540665,-12.0498554],[-77.0537162,-12.0491346],[-77.0537011,-12.0491035],[-77.05308,-12.0492142],[-77.050305,-12.0497087],[-77.0491811,-12.0499554],[-77.0472106,-12.0503531],[-77.0461144,-12.0505572],[-77.0451117,-12.0506921],[-77.0447618,-12.0507088],[-77.0424042,-12.0508731],[-77.0422196,-12.0528409],[-77.0420547,-12.0545099],[-77.0419307,-12.0558104],[-77.0417541,-12.0582288],[-77.0416121,-12.0596565],[-77.0415865,-12.0602799],[-77.0429746,-12.0619726],[-77.0431811,-12.0622452],[-77.0435781,-12.0627249],[-77.0456639,-12.0651687],[-77.0398082,-12.064435],[-77.0396058,-12.0644305],[-77.0392025,-12.0645905],[-77.0375498,-12.0643722],[-77.0381246,-12.0675584],[-77.036285,-12.0797663],[-77.0280684,-12.078711],[-77.0289249,-12.0767353],[-77.0299616,-12.0743702],[-77.031349,-12.0708087],[-77.0315838,-12.0700703],[-77.032012,-12.0689525],[-77.0327966,-12.0669219],[-77.034086,-12.0635853],[-77.0348043,-12.0617262],[-77.0349438,-12.0613654],[-77.0350608,-12.0611383],[-77.0351976,-12.0609866],[-77.0353854,-12.0607763],[-77.0356261,-12.0605086],[-77.0355325,-12.0603845],[-77.0354279,-12.0601522],[-77.0354364,-12.0597041],[-77.03519,-12.0597748],[-77.0243348,-12.0583729],[-77.0174068,-12.0574944],[-77.0171503,-12.058288],[-77.0166453,-12.0588366],[-77.0165995,-12.058893],[-77.0160416,-12.0602084],[-77.0155879,-12.0614044],[-77.013795,-12.0611524],[-77.0130164,-12.0610689],[-77.0107715,-12.0608281],[-77.007293,-12.060334],[-77.0071289,-12.0605722],[-77.0063242,-12.0610489],[-77.0059824,-12.0611797],[-77.0053711,-12.0614356],[-77.004502,-12.0621075],[-77.003877,-12.0623847],[-77.0031671,-12.0626012],[-77.0028535,-12.0615801],[-77.0021347,-12.0617832],[-77.001873,-12.0618399],[-77.0018184,-12.0618496],[-77.0018138,-12.0618324],[-77.0017774,-12.0616954],[-77.0023496,-12.0612754],[-77.0028535,-12.0609687],[-77.0033847,-12.0607246],[-77.0037422,-12.0605781],[-77.0039981,-12.0605586],[-77.0044082,-12.0606406],[-77.0047207,-12.0606114],[-77.0050312,-12.0605274],[-77.005332,-12.0605684],[-77.0057656,-12.0606621],[-77.0060564,-12.0606389],[-77.006401,-12.0604762],[-77.0066852,-12.0602315],[-77.0069704,-12.0596879],[-77.007153,-12.0592225],[-77.0073124,-12.0588164],[-77.0074181,-12.0586757],[-77.007522,-12.0585711],[-77.0077344,-12.0583575],[-77.0094985,-12.0569295],[-77.0103125,-12.0561347],[-77.0116016,-12.0543691],[-77.0122636,-12.0536231],[-77.0122314,-12.0533582],[-77.0120925,-12.0529944],[-77.0119864,-12.0525156],[-77.0116114,-12.0515742],[-77.0113184,-12.0507344],[-77.011288,-12.0505929],[-77.0110937,-12.0496875],[-77.0109687,-12.048541],[-77.0108847,-12.0474219],[-77.0110195,-12.0458829],[-77.0108847,-12.0458516],[-77.0107149,-12.0446485],[-77.0108965,-12.0437637],[-77.0073945,-12.042586],[-77.0070079,-12.0428809],[-77.0073496,-12.043957],[-77.0080861,-12.0458711],[-77.0085766,-12.0465023],[-77.0082327,-12.0469943],[-77.0081065,-12.047256],[-77.0082043,-12.0473261],[-77.0084139,-12.0476051],[-77.0076954,-12.0487461],[-77.0075117,-12.0489062],[-77.0072597,-12.0490606],[-77.0068534,-12.0495417],[-77.0067424,-12.0495451],[-77.0064843,-12.049361],[-77.0060916,-12.0490942],[-77.0057586,-12.0488573],[-77.0052091,-12.0483705],[-77.0050017,-12.0481822],[-77.0049441,-12.0481209],[-77.0049224,-12.0479421],[-77.0047785,-12.0478418],[-77.0045157,-12.0477437],[-77.0037934,-12.0473138],[-77.0034206,-12.0471631],[-77.0030005,-12.0469045],[-77.0047422,-12.0416562],[-77.0057014,-12.0380378],[-77.0059676,-12.0376154],[-77.0070883,-12.0363477],[-77.00875,-12.0343437],[-77.008877,-12.0340899],[-77.0080149,-12.0334212],[-77.0098418,-12.0306376],[-77.010228,-12.0308684],[-77.0106572,-12.0311412],[-77.0110542,-12.031582],[-77.0116228,-12.032626],[-77.0119608,-12.0333868],[-77.0122504,-12.0346302],[-77.0123416,-12.0349922],[-77.0125311,-12.0362491],[-77.0127308,-12.0372974],[-77.0128332,-12.0379646],[-77.0129891,-12.0390639],[-77.0130102,-12.0392126],[-77.0133836,-12.0406866],[-77.0138356,-12.0413057],[-77.0143211,-12.0418434],[-77.0147101,-12.0422611],[-77.0157931,-12.0430995],[-77.016312,-12.0432612],[-77.0171866,-12.0436641],[-77.0180709,-12.0439196],[-77.0191125,-12.0441456],[-77.0202057,-12.0441625],[-77.0203802,-12.0441651],[-77.0218051,-12.0440571],[-77.0232299,-12.0438901],[-77.0243404,-12.0437919],[-77.024582,-12.0437658],[-77.0249965,-12.043721],[-77.0280844,-12.0434577],[-77.029745,-12.0431727],[-77.0316907,-12.0422884],[-77.0339239,-12.0412871],[-77.0353222,-12.0407031],[-77.0371542,-12.0400937],[-77.0380879,-12.0397137],[-77.0380997,-12.0397006],[-77.0390371,-12.0393301],[-77.0400292,-12.0390235],[-77.042284,-12.0388392],[-77.0434705,-12.0388646],[-77.0439543,-12.0388404],[-77.0449114,-12.0389368],[-77.04558,-12.03881],[-77.0459,-12.03859],[-77.04626,-12.03821],[-77.04653,-12.03761],[-77.0469171,-12.0368033],[-77.0474798,-12.0362526],[-77.0478166,-12.0358885],[-77.0481717,-12.0356736],[-77.0485736,-12.0356741],[-77.0491045,-12.0357258],[-77.0498742,-12.035793],[-77.0509641,-12.0360095],[-77.0516756,-12.0362961],[-77.0529954,-12.03691],[-77.05357,-12.0368489],[-77.0541739,-12.0366884],[-77.0548427,-12.0364686],[-77.0554383,-12.036377],[-77.0562045,-12.0364253],[-77.0569183,-12.0365004],[-77.0581143,-12.0361656],[-77.0588266,-12.0359518],[-77.059406,-12.0358614],[-77.0605833,-12.0356277],[-77.0624287,-12.0351928],[-77.06376,-12.0350832],[-77.065398,-12.0349438],[-77.065871,-12.0349408],[-77.06635,-12.03485],[-77.06754,-12.03484],[-77.0681906,-12.0347721],[-77.0688002,-12.034643],[-77.0702296,-12.0343277],[-77.0717692,-12.0343379],[-77.07343,-12.0346],[-77.07481,-12.03494],[-77.0779642,-12.0354026],[-77.0794814,-12.0357559],[-77.0798494,-12.0358287],[-77.0829631,-12.036339],[-77.0825954,-12.0391953],[-77.0831828,-12.0392438],[-77.0826873,-12.0449984],[-77.0817948,-12.0449269],[-77.081605,-12.0468768],[-77.0816033,-12.0469196],[-77.0767239,-12.0465099],[-77.0769492,-12.04747],[-77.078061,-12.0495173],[-77.0781871,-12.0500582],[-77.0815617,-12.0506383],[-77.0852457,-12.0512868],[-77.0876243,-12.0517076],[-77.0876368,-12.0517098],[-77.0878604,-12.0535785],[-77.0879068,-12.0541022],[-77.0881256,-12.0558493],[-77.0884555,-12.0588313]]]}},{"type":"Feature","properties":{"place_id":3677127,"osm_type":"relation","osm_id":1944765,"place_rank":16,"category":"boundary","type":"administrative","importance":0.4082948885069334,"addresstype":"city","name":"Magdalena del Mar","display_name":"Magdalena del Mar, Lima, Lima Metropolitana, Lima, Perú","address":{"city":"Magdalena del Mar","region":"Lima","ISO3166-2-lvl6":"PE-LMA","state_district":"Lima Metropolitana","state":"Lima","ISO3166-2-lvl4":"PE-LIM","country":"Perú","country_code":"pe"}},"bbox":[-77.0790081,-12.1079299,-77.0549844,-12.0835840],"geometry":{"type":"Polygon","coordinates":[[[-77.0790081,-12.097876],[-77.0785368,-12.0980682],[-77.0781183,-12.0982584],[-77.0776955,-12.0984215],[-77.0771755,-12.098637],[-77.0762099,-12.0990674],[-77.0753742,-12.0994378],[-77.0745185,-12.0998424],[-77.0733375,-12.1003848],[-77.0719712,-12.101071],[-77.0714544,-12.1013146],[-77.0703317,-12.1018873],[-77.0697894,-12.1021397],[-77.0690142,-12.1024416],[-77.0682979,-12.1027822],[-77.0674134,-12.1032706],[-77.0670703,-12.1034528],[-77.0666328,-12.1036862],[-77.0657122,-12.1042429],[-77.0653482,-12.1044883],[-77.0645975,-12.1049944],[-77.0641151,-12.1053223],[-77.0637479,-12.1056296],[-77.0633644,-12.1059326],[-77.0626487,-12.1063792],[-77.0620826,-12.1067474],[-77.0618714,-12.1069068],[-77.0616515,-12.1071468],[-77.0615272,-12.1073807],[-77.0614033,-12.1075053],[-77.0612393,-12.1076194],[-77.0608319,-12.1079299],[-77.0607917,-12.1078331],[-77.0603357,-12.1072256],[-77.059719,-12.1070428],[-77.0606406,-12.1058646],[-77.0603086,-12.105168],[-77.0603555,-12.1046524],[-77.0605117,-12.1042129],[-77.060625,-12.1037285],[-77.0606211,-12.1032597],[-77.060543,-12.1029629],[-77.060668,-12.1025235],[-77.0607794,-12.1021329],[-77.0607461,-12.1018204],[-77.0606836,-12.101461],[-77.0605593,-12.1010528],[-77.060795,-12.1009432],[-77.0602012,-12.0998887],[-77.0599511,-12.1000215],[-77.0594844,-12.0990039],[-77.0593691,-12.0986211],[-77.0583847,-12.0966719],[-77.0588829,-12.0964044],[-77.0583199,-12.0950091],[-77.0582843,-12.0948915],[-77.0578628,-12.0937652],[-77.0573847,-12.0925527],[-77.0566563,-12.0929277],[-77.0557676,-12.0933867],[-77.0549844,-12.0918867],[-77.062416,-12.087043],[-77.0631426,-12.086543],[-77.0633281,-12.0866205],[-77.0634784,-12.0866524],[-77.0721035,-12.083584],[-77.0722187,-12.0837715],[-77.0722851,-12.0837559],[-77.0735391,-12.0858145],[-77.0739219,-12.0856797],[-77.074467,-12.0866808],[-77.0749141,-12.087502],[-77.0738125,-12.0879669],[-77.07375,-12.087961],[-77.0740937,-12.0889414],[-77.07416,-12.088919],[-77.0751152,-12.0885956],[-77.076156,-12.0914781],[-77.0763264,-12.0915739],[-77.0774726,-12.0950254],[-77.0790081,-12.097876]]]}},{"type":"Feature","properties":{"place_id":3677306,"osm_type":"relation","osm_id":1944812,"place_rank":16,"category":"boundary","type":"administrative","importance":0.44541965879922213,"addresstype":"city","name":"San Isidro","display_name":"San Isidro, Lima, Lima Metropolitana, Lima, Perú","address":{"city":"San Isidro","region":"Lima","ISO3166-2-lvl6":"PE-LMA","state_district":"Lima Metropolitana","state":"Lima","ISO3166-2-lvl4":"PE-LIM","country":"Perú","country_code":"pe"}},"bbox":[-77.0608319,-12.1112981,-77.0075469,-12.0850410],"geometry":{"type":"Polygon","coordinates":[[[-77.0608319,-12.1079299],[-77.0606945,-12.1080097],[-77.0602753,-12.1081814],[-77.0599565,-12.1083603],[-77.0595389,-12.1086931],[-77.059146,-12.108982],[-77.058742,-12.1093637],[-77.0583959,-12.1096514],[-77.0577604,-12.1100961],[-77.0571032,-12.1105561],[-77.0564491,-12.1110468],[-77.0560187,-12.1112981],[-77.05575,-12.1109667],[-77.0556934,-12.1109414],[-77.0555899,-12.1108887],[-77.0554159,-12.1108125],[-77.0553496,-12.1107812],[-77.0551601,-12.1106934],[-77.0550704,-12.1106211],[-77.0550079,-12.1105664],[-77.0549766,-12.1105176],[-77.0549395,-12.1104454],[-77.0549551,-12.1103575],[-77.0549726,-12.1102891],[-77.0549785,-12.1102246],[-77.0549649,-12.1101544],[-77.0549297,-12.1101016],[-77.0548574,-12.1100391],[-77.0547871,-12.1100059],[-77.0547402,-12.1099785],[-77.0546914,-12.1099531],[-77.054625,-12.1099044],[-77.0545547,-12.1098399],[-77.0545415,-12.1098277],[-77.0544746,-12.1097656],[-77.054418,-12.1097364],[-77.0542929,-12.1096992],[-77.0537402,-12.1096934],[-77.0535754,-12.1096367],[-77.0535133,-12.1095976],[-77.0534364,-12.1095305],[-77.0533652,-12.1094374],[-77.0533333,-12.1093723],[-77.0532936,-12.1092707],[-77.0531992,-12.1089591],[-77.0531544,-12.1084492],[-77.0530645,-12.108543],[-77.0528887,-12.1087382],[-77.0527579,-12.1088829],[-77.052582,-12.1090781],[-77.0524844,-12.1091875],[-77.0523614,-12.1093301],[-77.0522051,-12.109502],[-77.0520801,-12.1096309],[-77.0520117,-12.1096972],[-77.0519667,-12.10975],[-77.0519044,-12.1098162],[-77.0518632,-12.1098594],[-77.0517735,-12.1099531],[-77.0516972,-12.1100351],[-77.0516107,-12.1100813],[-77.051572,-12.110102],[-77.0513743,-12.1102619],[-77.0492694,-12.1083691],[-77.0482832,-12.109344],[-77.0481339,-12.1094961],[-77.0466914,-12.1109414],[-77.0462451,-12.1104925],[-77.0449981,-12.1104492],[-77.044192,-12.1104373],[-77.0439044,-12.1104892],[-77.0436255,-12.1105901],[-77.0431132,-12.1108457],[-77.0404629,-12.1083457],[-77.0399454,-12.1088575],[-77.0392196,-12.1095769],[-77.0391198,-12.1096768],[-77.039041,-12.1097539],[-77.03825,-12.1089746],[-77.0371582,-12.1100645],[-77.0366114,-12.1100254],[-77.0315531,-12.1035829],[-77.0315099,-12.1035098],[-77.0279749,-12.1029464],[-77.0273751,-12.1028597],[-77.0272786,-12.1028466],[-77.0270065,-12.1028045],[-77.0269876,-12.1028029],[-77.0262712,-12.1027379],[-77.0255174,-12.1026648],[-77.0251274,-12.1026329],[-77.0234697,-12.1024522],[-77.022594,-12.1023566],[-77.0210156,-12.1021844],[-77.0204349,-12.1021359],[-77.019999,-12.1020939],[-77.0196474,-12.1020421],[-77.0192936,-12.1020244],[-77.0192315,-12.1020197],[-77.0189445,-12.1019981],[-77.0188781,-12.1019687],[-77.0187384,-12.1019825],[-77.0186917,-12.101983],[-77.018454,-12.1020091],[-77.0183991,-12.1020205],[-77.0164527,-12.1022912],[-77.0164121,-12.1022969],[-77.0165136,-12.1030645],[-77.0164864,-12.1032226],[-77.0164336,-12.1033242],[-77.0163261,-12.1034279],[-77.0161191,-12.1035624],[-77.016418,-12.1041426],[-77.0164707,-12.1043476],[-77.0165527,-12.1055684],[-77.0149806,-12.1077812],[-77.0146914,-12.108041],[-77.0104794,-12.1072949],[-77.0106211,-12.1066836],[-77.0121132,-12.0991114],[-77.012023,-12.0988287],[-77.0114978,-12.0971831],[-77.011002,-12.0959785],[-77.0076954,-12.0898926],[-77.0075919,-12.0895059],[-77.0075547,-12.0892715],[-77.0075469,-12.0889551],[-77.0075654,-12.088827],[-77.0075697,-12.0888295],[-77.0098297,-12.0891589],[-77.0126029,-12.0895226],[-77.0128881,-12.0895656],[-77.0159071,-12.0899321],[-77.0171582,-12.0900913],[-77.0179996,-12.0901983],[-77.0228124,-12.0908106],[-77.0284067,-12.0916472],[-77.030226,-12.0919193],[-77.0300098,-12.0912078],[-77.033461,-12.0907305],[-77.0337344,-12.08917],[-77.0431719,-12.0904551],[-77.0430625,-12.0912012],[-77.0431905,-12.0912524],[-77.0464531,-12.0916719],[-77.0464941,-12.0914239],[-77.0476172,-12.0915762],[-77.0485755,-12.0851116],[-77.048586,-12.085041],[-77.049084,-12.0855547],[-77.0496231,-12.0862461],[-77.0499004,-12.0867031],[-77.0532169,-12.0930704],[-77.0549844,-12.0918867],[-77.0557676,-12.0933867],[-77.0566563,-12.0929277],[-77.0573847,-12.0925527],[-77.0578628,-12.0937652],[-77.0582843,-12.0948915],[-77.0583199,-12.0950091],[-77.0588829,-12.0964044],[-77.0583847,-12.0966719],[-77.0593691,-12.0986211],[-77.0594844,-12.0990039],[-77.0599511,-12.1000215],[-77.0602012,-12.0998887],[-77.060795,-12.1009432],[-77.0605593,-12.1010528],[-77.0606836,-12.101461],[-77.0607461,-12.1018204],[-77.0607794,-12.1021329],[-77.060668,-12.1025235],[-77.060543,-12.1029629],[-77.0606211,-12.1032597],[-77.060625,-12.1037285],[-77.0605117,-12.1042129],[-77.0603555,-12.1046524],[-77.0603086,-12.105168],[-77.0606406,-12.1058646],[-77.059719,-12.1070428],[-77.0603357,-12.1072256],[-77.0607917,-12.1078331],[-77.0608319,-12.1079299]]]}}]}